{"type":"FeatureCollection","metadata":{"generated":1790347016000,"url":"https://earthquake.usgs.gov/earthquakes/feed/v1.0/summary/4.5_day.geojson","title":"USGS Magnitude 4.5+ Earthquakes, Past Day","status":200,"api":"2.7.0","count":12},"features":[{"type":"Feature","properties":{"mag":4.7,"place":"80 km SW of Labuan, Indonesia","time":1790344046836,"updated":1790346823040,"tz":null,"url":"https://earthquake.usgs.gov/earthquakes/eventpage/us6000txkc","detail":"https://earthquake.usgs.gov/earthquakes/feed/v1.0/detail/us6000txkc.geojson","felt":null,"cdi":null,"mmi":null,"alert":null,"status":"reviewed","tsunami":0,"sig":340,"net":"us","code":"6000txkc","ids":",us6000txkc,","sources":",us,","types":",origin,phase-data,","nst":48,"dmin":3.516,"rms":1.06,"gap":124,"magType":"mb","type":"earthquake","title":"M 4.7 - 80 km SW of Labuan, Indonesia"},"geometry":{"type":"Point","coordinates":[105.3554,-6.9267,10]},"id":"us6000txkc"},
{"type":"Feature","properties":{"mag":4.9,"place":"Drake Passage","time":1790339836665,"updated":1790341190040,"tz":null,"url":"https://earthquake.usgs.gov/earthquakes/eventpage/us6000txk8","detail":"https://earthquake.usgs.gov/earthquakes/feed/v1.0/detail/us6000txk8.geojson","felt":null,"cdi":null,"mmi":null,"alert":null,"status":"reviewed","tsunami":0,"sig":369,"net":"us","code":"6000txk8","ids":",us6000txk8,","sources":",us,","types":",origin,phase-data,","nst":37,"dmin":5.099,"rms":0.69,"gap":130,"magType":"mb","type":"earthquake","title":"M 4.9 - Drake Passage"},"geometry":{"type":"Point","coordinates":[-61.371,-59.849,10]},"id":"us6000txk8"},
{"type":"Feature","properties":{"mag":4.5,"place":"72 km E of Thang, India","time":1790337201312,"updated":1790340403040,"tz":null,"url":"https://earthquake.usgs.gov/earthquakes/eventpage/us6000txk0","detail":"https://earthquake.usgs.gov/earthquakes/feed/v1.0/detail/us6000txk0.geojson","felt":null,"cdi":null,"mmi":null,"alert":null,"status":"reviewed","tsunami":0,"sig":312,"net":"us","code":"6000txk0","ids":",us6000txk0,","sources":",us,","types":",origin,phase-data,","nst":43,"dmin":3.76,"rms":0.84,"gap":79,"magType":"mb","type":"earthquake","title":"M 4.5 - 72 km E of Thang, India"},"geometry":{"type":"Point","coordinates":[77.5756,34.8425,10]},"id":"us6000txk0"},
{"type":"Feature","properties":{"mag":5.3,"place":"Vanuatu region","time":1790334735838,"updated":1790335890040,"tz":null,"url":"https://earthquake.usgs.gov/earthquakes/eventpage/us6000txjy","detail":"https://earthquake.usgs.gov/earthquakes/feed/v1.0/detail/us6000txjy.geojson","felt":null,"cdi":null,"mmi":null,"alert":null,"status":"reviewed","tsunami":0,"sig":432,"net":"us","code":"6000txjy","ids":",us6000txjy,","sources":",us,","types":",origin,phase-data,","nst":59,"dmin":5.567,"rms":1.15,"gap":88,"magType":"mww","type":"earthquake","title":"M 5.3 - Vanuatu region"},"geometry":{"type":"Point","coordinates":[174.0792,-21.8904,23.966]},"id":"us6000txjy"},
{"type":"Feature","properties":{"mag":5,"place":"124 km N of Metinaro, Timor Leste","time":1790310460435,"updated":1790311281040,"tz":null,"url":"https://earthquake.usgs.gov/earthquakes/eventpage/us6000txim","detail":"https://earthquake.usgs.gov/earthquakes/feed/v1.0/detail/us6000txim.geojson","felt":null,"cdi":null,"mmi":null,"alert":null,"status":"reviewed","tsunami":0,"sig":385,"net":"us","code":"6000txim","ids":",us6000txim,","sources":",us,","types":",origin,phase-data,","nst":45,"dmin":6.37,"rms":1.13,"gap":91,"magType":"mb","type":"earthquake","title":"M 5.0 - 124 km N of Metinaro, Timor Leste"},"geometry":{"type":"Point","coordinates":[125.6985,-7.4036,10]},"id":"us6000txim"},
{"type":"Feature","properties":{"mag":4.5,"place":"39 km WSW of Sipí, Colombia","time":1790297827267,"updated":1790307312040,"tz":null,"url":"https://earthquake.usgs.gov/earthquakes/eventpage/us6000txhs","detail":"https://earthquake.usgs.gov/earthquakes/feed/v1.0/detail/us6000txhs.geojson","felt":null,"cdi":null,"mmi":null,"alert":null,"status":"reviewed","tsunami":0,"sig":312,"net":"us","code":"6000txhs","ids":",us6000txhs,","sources":",us,","types":",origin,phase-data,","nst":38,"dmin":2.198,"rms":1.03,"gap":104,"magType":"mb","type":"earthquake","title":"M 4.5 - 39 km WSW of Sipí, Colombia"},"geometry":{"type":"Point","coordinates":[-76.9788,4.5217,52.219]},"id":"us6000txhs"},
{"type":"Feature","properties":{"mag":5.3,"place":"72 km NW of Finschhafen, Papua New Guinea","time":1790292628053,"updated":1790293735040,"tz":null,"url":"https://earthquake.usgs.gov/earthquakes/eventpage/us6000txhp","detail":"https://earthquake.usgs.gov/earthquakes/feed/v1.0/detail/us6000txhp.geojson","felt":null,"cdi":null,"mmi":null,"alert":null,"status":"reviewed","tsunami":0,"sig":432,"net":"us","code":"6000txhp","ids":",us6000txhp,","sources":",us,","types":",origin,phase-data,","nst":57,"dmin":3.305,"rms":0.91,"gap":43,"magType":"mww","type":"earthquake","title":"M 5.3 - 72 km NW of Finschhafen, Papua New Guinea"},"geometry":{"type":"Point","coordinates":[147.3935,-6.0863,53.586]},"id":"us6000txhp"},
{"type":"Feature","properties":{"mag":4.9,"place":"Kermadec Islands, New Zealand","time":1790288579185,"updated":1790295112040,"tz":null,"url":"https://earthquake.usgs.gov/earthquakes/eventpage/us6000txha","detail":"https://earthquake.usgs.gov/earthquakes/feed/v1.0/detail/us6000txha.geojson","felt":null,"cdi":null,"mmi":null,"alert":null,"status":"reviewed","tsunami":0,"sig":369,"net":"us","code":"6000txha","ids":",us6000txha,","sources":",us,","types":",origin,phase-data,","nst":40,"dmin":0.307,"rms":0.97,"gap":110,"magType":"mb","type":"earthquake","title":"M 4.9 - Kermadec Islands, New Zealand"},"geometry":{"type":"Point","coordinates":[-177.6601,-29.4432,48.811]},"id":"us6000txha"},
{"type":"Feature","properties":{"mag":4.6,"place":"155 km NW of Ternate, Indonesia","time":1790280325988,"updated":1790286075040,"tz":null,"url":"https://earthquake.usgs.gov/earthquakes/eventpage/us6000txg5","detail":"https://earthquake.usgs.gov/earthquakes/feed/v1.0/detail/us6000txg5.geojson","felt":null,"cdi":null,"mmi":null,"alert":null,"status":"reviewed","tsunami":0,"sig":326,"net":"us","code":"6000txg5","ids":",us6000txg5,","sources":",us,","types":",origin,phase-data,","nst":62,"dmin":9.658,"rms":0.99,"gap":77,"magType":"mb","type":"earthquake","title":"M 4.6 - 155 km NW of Ternate, Indonesia"},"geometry":{"type":"Point","coordinates":[126.5357,1.9132,48.469]},"id":"us6000txg5"},
{"type":"Feature","properties":{"mag":5.1,"place":"32 km S of Kokopo, Papua New Guinea","time":1790272847703,"updated":1790273876040,"tz":null,"url":"https://earthquake.usgs.gov/earthquakes/eventpage/us6000txf9","detail":"https://earthquake.usgs.gov/earthquakes/feed/v1.0/detail/us6000txf9.geojson","felt":null,"cdi":null,"mmi":null,"alert":null,"status":"reviewed","tsunami":0,"sig":400,"net":"us","code":"6000txf9","ids":",us6000txf9,","sources":",us,","types":",origin,phase-data,","nst":65,"dmin":0.456,"rms":0.89,"gap":86,"magType":"mb","type":"earthquake","title":"M 5.1 - 32 km S of Kokopo, Papua New Guinea"},"geometry":{"type":"Point","coordinates":[152.2767,-4.6356,93.994]},"id":"us6000txf9"},
{"type":"Feature","properties":{"mag":4.6,"place":"21 km NNW of Rioblanco, Colombia","time":1790268391662,"updated":1790277573040,"tz":null,"url":"https://earthquake.usgs.gov/earthquakes/eventpage/us6000txdb","detail":"https://earthquake.usgs.gov/earthquakes/feed/v1.0/detail/us6000txdb.geojson","felt":null,"cdi":null,"mmi":null,"alert":null,"status":"reviewed","tsunami":0,"sig":326,"net":"us","code":"6000txdb","ids":",us6000txdb,","sources":",us,","types":",origin,phase-data,","nst":39,"dmin":1.829,"rms":1.11,"gap":108,"magType":"mb","type":"earthquake","title":"M 4.6 - 21 km NNW of Rioblanco, Colombia"},"geometry":{"type":"Point","coordinates":[-75.7529,3.6948,10]},"id":"us6000txdb"},
{"type":"Feature","properties":{"mag":4.6,"place":"119 km SW of Abepura, Indonesia","time":1790267280188,"updated":1790273190040,"tz":null,"url":"https://earthquake.usgs.gov/earthquakes/eventpage/us6000txcw","detail":"https://earthquake.usgs.gov/earthquakes/feed/v1.0/detail/us6000txcw.geojson","felt":null,"cdi":null,"mmi":null,"alert":null,"status":"reviewed","tsunami":0,"sig":326,"net":"us","code":"6000txcw","ids":",us6000txcw,","sources":",us,","types":",origin,phase-data,","nst":29,"dmin":1.181,"rms":0.78,"gap":77,"magType":"mb","type":"earthquake","title":"M 4.6 - 119 km SW of Abepura, Indonesia"},"geometry":{"type":"Point","coordinates":[139.7677,-3.243,68.453]},"id":"us6000txcw"}],"bbox":[-177.6601,-59.849,10,174.0792,34.8425,93.994]}