{"type":"FeatureCollection","metadata":{"generated":1790347040000,"url":"https://earthquake.usgs.gov/earthquakes/feed/v1.0/summary/significant_week.geojson","title":"USGS Significant Earthquakes, Past Week","status":200,"api":"2.7.0","count":1},"features":[{"type":"Feature","properties":{"mag":6.4,"place":"49 km NNE of Kainantu, Papua New Guinea","time":1789895855624,"updated":1789982725530,"tz":null,"url":"https://earthquake.usgs.gov/earthquakes/eventpage/us7000tiqc","detail":"https://earthquake.usgs.gov/earthquakes/feed/v1.0/detail/us7000tiqc.geojson","felt":30,"cdi":5.6,"mmi":5.41,"alert":"green","status":"reviewed","tsunami":0,"sig":647,"net":"us","code":"7000tiqc","ids":",us7000tiqc,","sources":",us,","types":",dyfi,ground-failure,losspager,moment-tensor,origin,phase-data,shakemap,","nst":91,"dmin":3.637,"rms":0.64,"gap":22,"magType":"mww","type":"earthquake","title":"M 6.4 - 49 km NNE of Kainantu, Papua New Guinea"},"geometry":{"type":"Point","coordinates":[146.0922,-5.9021,104.329]},"id":"us7000tiqc"}]}